[{"OBJECT_NAME":"ONEWEB-0094","OBJECT_ID":"2020-020AC","EPOCH":"2026-06-15T01:50:28.441248","MEAN_MOTION":13.17647339,"ECCENTRICITY":0.000163,"INCLINATION":87.9144,"RA_OF_ASC_NODE":6.2688,"ARG_OF_PERICENTER":85.3029,"MEAN_ANOMALY":274.8289,"EPHEMERIS_TYPE":0,"CLASSIFICATION_TYPE":"U","NORAD_CAT_ID":45450,"ELEMENT_SET_NO":999,"REV_AT_EPOCH":30603,"BSTAR":0.00010205,"MEAN_MOTION_DOT":5.2e-07,"MEAN_MOTION_DDOT":0.0},{"OBJECT_NAME":"ONEWEB-0087","OBJECT_ID":"2020-020AD","EPOCH":"2026-06-15T02:58:20.645184","MEAN_MOTION":13.11417798,"ECCENTRICITY":0.0001698,"INCLINATION":87.8906,"RA_OF_ASC_NODE":21.4531,"ARG_OF_PERICENTER":75.8784,"MEAN_ANOMALY":284.2533,"EPHEMERIS_TYPE":0,"CLASSIFICATION_TYPE":"U","NORAD_CAT_ID":45451,"ELEMENT_SET_NO":999,"REV_AT_EPOCH":30231,"BSTAR":0.00145,"MEAN_MOTION_DOT":5.27e-06,"MEAN_MOTION_DDOT":0.0},{"OBJECT_NAME":"ONEWEB-0082","OBJECT_ID":"2020-020AE","EPOCH":"2026-06-15T02:53:28.398048","MEAN_MOTION":13.11418773,"ECCENTRICITY":0.0001878,"INCLINATION":87.8898,"RA_OF_ASC_NODE":21.4705,"ARG_OF_PERICENTER":70.0243,"MEAN_ANOMALY":290.1087,"EPHEMERIS_TYPE":0,"CLASSIFICATION_TYPE":"U","NORAD_CAT_ID":45452,"ELEMENT_SET_NO":999,"REV_AT_EPOCH":30240,"BSTAR":0.0015608,"MEAN_MOTION_DOT":5.66e-06,"MEAN_MOTION_DDOT":0.0},{"OBJECT_NAME":"ONEWEB-0050","OBJECT_ID":"2020-020AF","EPOCH":"2026-06-15T04:41:17.798496","MEAN_MOTION":14.90375289,"ECCENTRICITY":0.0003462,"INCLINATION":88.93,"RA_OF_ASC_NODE":233.481,"ARG_OF_PERICENTER":31.71,"MEAN_ANOMALY":328.4337,"EPHEMERIS_TYPE":0,"CLASSIFICATION_TYPE":"U","NORAD_CAT_ID":45453,"ELEMENT_SET_NO":999,"REV_AT_EPOCH":34008,"BSTAR":0.00024115,"MEAN_MOTION_DOT":2.367e-05,"MEAN_MOTION_DDOT":0.0},{"OBJECT_NAME":"ONEWEB-0034","OBJECT_ID":"2020-020AG","EPOCH":"2026-06-15T03:47:33.119808","MEAN_MOTION":13.11419503,"ECCENTRICITY":0.0001776,"INCLINATION":87.8896,"RA_OF_ASC_NODE":21.4722,"ARG_OF_PERICENTER":85.0974,"MEAN_ANOMALY":275.0357,"EPHEMERIS_TYPE":0,"CLASSIFICATION_TYPE":"U","NORAD_CAT_ID":45454,"ELEMENT_SET_NO":999,"REV_AT_EPOCH":30232,"BSTAR":-0.0030357,"MEAN_MOTION_DOT":-1.063e-05,"MEAN_MOTION_DDOT":0.0},{"OBJECT_NAME":"ONEWEB-0060","OBJECT_ID":"2020-020AH","EPOCH":"2026-06-15T02:42:39.595392","MEAN_MOTION":13.1141894,"ECCENTRICITY":0.0001384,"INCLINATION":87.889,"RA_OF_ASC_NODE":21.4796,"ARG_OF_PERICENTER":50.9295,"MEAN_ANOMALY":309.1955,"EPHEMERIS_TYPE":0,"CLASSIFICATION_TYPE":"U","NORAD_CAT_ID":45455,"ELEMENT_SET_NO":999,"REV_AT_EPOCH":30227,"BSTAR":0.00096461,"MEAN_MOTION_DOT":3.55e-06,"MEAN_MOTION_DDOT":0.0},{"OBJECT_NAME":"ONEWEB-0086","OBJECT_ID":"2020-020AJ","EPOCH":"2026-06-15T02:11:56.210784","MEAN_MOTION":13.11415867,"ECCENTRICITY":0.0001047,"INCLINATION":87.8898,"RA_OF_ASC_NODE":21.4793,"ARG_OF_PERICENTER":78.9803,"MEAN_ANOMALY":281.1443,"EPHEMERIS_TYPE":0,"CLASSIFICATION_TYPE":"U","NORAD_CAT_ID":45456,"ELEMENT_SET_NO":999,"REV_AT_EPOCH":30233,"BSTAR":-0.001436,"MEAN_MOTION_DOT":-4.96e-06,"MEAN_MOTION_DDOT":0.0},{"OBJECT_NAME":"ONEWEB-0088","OBJECT_ID":"2020-020AK","EPOCH":"2026-06-15T03:30:16.159104","MEAN_MOTION":13.1141636,"ECCENTRICITY":0.000218,"INCLINATION":87.8904,"RA_OF_ASC_NODE":21.4408,"ARG_OF_PERICENTER":80.2699,"MEAN_ANOMALY":279.8675,"EPHEMERIS_TYPE":0,"CLASSIFICATION_TYPE":"U","NORAD_CAT_ID":45457,"ELEMENT_SET_NO":999,"REV_AT_EPOCH":30227,"BSTAR":-0.00020313999999999998,"MEAN_MOTION_DOT":-5.9e-07,"MEAN_MOTION_DDOT":0.0},{"OBJECT_NAME":"ONEWEB-0102","OBJECT_ID":"2020-100A","EPOCH":"2026-06-15T05:28:21.206208","MEAN_MOTION":13.12441499,"ECCENTRICITY":0.0001582,"INCLINATION":87.8937,"RA_OF_ASC_NODE":351.0649,"ARG_OF_PERICENTER":96.5235,"MEAN_ANOMALY":263.6074,"EPHEMERIS_TYPE":0,"CLASSIFICATION_TYPE":"U","NORAD_CAT_ID":47258,"ELEMENT_SET_NO":999,"REV_AT_EPOCH":26447,"BSTAR":-0.0010324,"MEAN_MOTION_DOT":-3.59e-06,"MEAN_MOTION_DDOT":0.0},{"OBJECT_NAME":"ONEWEB-0109","OBJECT_ID":"2020-100B","EPOCH":"2026-06-15T00:11:12.519456","MEAN_MOTION":13.12443377,"ECCENTRICITY":0.0001827,"INCLINATION":87.8949,"RA_OF_ASC_NODE":351.0922,"ARG_OF_PERICENTER":95.5422,"MEAN_ANOMALY":264.5915,"EPHEMERIS_TYPE":0,"CLASSIFICATION_TYPE":"U","NORAD_CAT_ID":47259,"ELEMENT_SET_NO":999,"REV_AT_EPOCH":26427,"BSTAR":-0.0012941,"MEAN_MOTION_DOT":-4.53e-06,"MEAN_MOTION_DDOT":0.0},{"OBJECT_NAME":"ONEWEB-0110","OBJECT_ID":"2020-100C","EPOCH":"2026-06-14T23:00:28.281888","MEAN_MOTION":13.1244459,"ECCENTRICITY":0.0001539,"INCLINATION":87.8948,"RA_OF_ASC_NODE":351.0862,"ARG_OF_PERICENTER":88.297,"MEAN_ANOMALY":271.8335,"EPHEMERIS_TYPE":0,"CLASSIFICATION_TYPE":"U","NORAD_CAT_ID":47260,"ELEMENT_SET_NO":999,"REV_AT_EPOCH":26443,"BSTAR":0.0011386,"MEAN_MOTION_DOT":4.22e-06,"MEAN_MOTION_DDOT":0.0},{"OBJECT_NAME":"ONEWEB-0111","OBJECT_ID":"2020-100D","EPOCH":"2026-06-15T01:34:09.344352","MEAN_MOTION":13.12440478,"ECCENTRICITY":0.0001767,"INCLINATION":87.8947,"RA_OF_ASC_NODE":351.0834,"ARG_OF_PERICENTER":87.2963,"MEAN_ANOMALY":272.8368,"EPHEMERIS_TYPE":0,"CLASSIFICATION_TYPE":"U","NORAD_CAT_ID":47261,"ELEMENT_SET_NO":999,"REV_AT_EPOCH":26428,"BSTAR":-0.00048233,"MEAN_MOTION_DOT":-1.61e-06,"MEAN_MOTION_DDOT":0.0},{"OBJECT_NAME":"ONEWEB-0114","OBJECT_ID":"2020-100E","EPOCH":"2026-06-15T00:28:17.280480","MEAN_MOTION":13.124448,"ECCENTRICITY":0.0002005,"INCLINATION":87.8949,"RA_OF_ASC_NODE":351.0902,"ARG_OF_PERICENTER":95.9856,"MEAN_ANOMALY":264.1501,"EPHEMERIS_TYPE":0,"CLASSIFICATION_TYPE":"U","NORAD_CAT_ID":47262,"ELEMENT_SET_NO":999,"REV_AT_EPOCH":26423,"BSTAR":-0.00022517000000000001,"MEAN_MOTION_DOT":-6.8e-07,"MEAN_MOTION_DDOT":0.0},{"OBJECT_NAME":"ONEWEB-0117","OBJECT_ID":"2020-100F","EPOCH":"2026-06-15T00:16:05.742912","MEAN_MOTION":13.12443823,"ECCENTRICITY":0.0001764,"INCLINATION":87.8945,"RA_OF_ASC_NODE":351.0829,"ARG_OF_PERICENTER":90.4951,"MEAN_ANOMALY":269.638,"EPHEMERIS_TYPE":0,"CLASSIFICATION_TYPE":"U","NORAD_CAT_ID":47263,"ELEMENT_SET_NO":999,"REV_AT_EPOCH":26424,"BSTAR":-0.00093959,"MEAN_MOTION_DOT":-3.25e-06,"MEAN_MOTION_DDOT":0.0},{"OBJECT_NAME":"ONEWEB-0118","OBJECT_ID":"2020-100G","EPOCH":"2026-06-15T01:04:53.851872","MEAN_MOTION":13.12442341,"ECCENTRICITY":0.0002131,"INCLINATION":87.8947,"RA_OF_ASC_NODE":351.0787,"ARG_OF_PERICENTER":92.1029,"MEAN_ANOMALY":268.0343,"EPHEMERIS_TYPE":0,"CLASSIFICATION_TYPE":"U","NORAD_CAT_ID":47264,"ELEMENT_SET_NO":999,"REV_AT_EPOCH":26444,"BSTAR":0.00097005,"MEAN_MOTION_DOT":3.62e-06,"MEAN_MOTION_DDOT":0.0},{"OBJECT_NAME":"ONEWEB-0119","OBJECT_ID":"2020-100H","EPOCH":"2026-06-15T05:21:02.809152","MEAN_MOTION":13.12442859,"ECCENTRICITY":0.0001798,"INCLINATION":87.8937,"RA_OF_ASC_NODE":351.06,"ARG_OF_PERICENTER":90.5473,"MEAN_ANOMALY":269.5861,"EPHEMERIS_TYPE":0,"CLASSIFICATION_TYPE":"U","NORAD_CAT_ID":47265,"ELEMENT_SET_NO":999,"REV_AT_EPOCH":26444,"BSTAR":-0.00076289,"MEAN_MOTION_DOT":-2.62e-06,"MEAN_MOTION_DDOT":0.0}]